SENTINEL-1D             
1 66315U 25251A   25337.60471144  .00000337  00000+0  80054-4 0  9996
2 66315  98.1924 342.7567 0002645 152.8376 207.2963 14.59911030  4207
QPS-SAR-14 (YACHIHOKO-I)
1 66316U 25252A   25338.13301586  .00012436  00000+0  10611-2 0  9992
2 66316  42.0034 122.5741 0006829  91.9223 268.2384 14.97560514  4245
ELECTRON R/B            
1 66317U 25252B   25337.74603822  .03381088  81863-5  17947-2 0  9993
2 66317  41.9860 105.3311 0081081  73.5218 287.4538 16.11372677  4407
STARLINK-35442          
1 66319U 25253A   25338.00002315 -.00136610  00000+0 -33150-2 0  9996
2 66319  43.0012  36.2403 0001616 263.9906  23.9749 15.40760986  5627
STARLINK-34616          
1 66320U 25253B   25337.85598218 -.00099902  00000+0 -18286-2 0  9997
2 66320  43.0001  36.7018 0003210 337.9730  22.0991 15.48827560  5633
STARLINK-34615          
1 66321U 25253C   25338.16670139 -.02530356  00000+0 -44688-1 0  9995
2 66321  43.0002  34.0776 0001446 263.9858   1.6810 15.52959497  5593
STARLINK-35292          
1 66322U 25253D   25337.91670139  .00050204  00000+0  12023-2 0  9992
2 66322  43.0009  36.6281 0001376 273.9096 308.6259 15.40671490  5517
STARLINK-35309          
1 66323U 25253E   25337.53071268  .00097932  00000+0  16515-2 0  9998
2 66323  42.9999  38.5588 0001736 269.0685  90.9976 15.50627350  5508
STARLINK-35506          
1 66324U 25253F   25337.53208834  .00026255  00000+0  45167-3 0  9996
2 66324  43.0006  38.5692 0000870 276.2742  83.8019 15.50590090  5507
STARLINK-35504          
1 66325U 25253G   25338.16670139 -.00013345  00000+0 -31309-3 0  9999
2 66325  43.0004  34.9773 0001011 274.2573 343.7049 15.40668597  5557
STARLINK-35479          
1 66326U 25253H   25338.11010836  .00184335  00000+0  30710-2 0  9997
2 66326  42.9999  35.1636 0003021 246.0870 113.9673 15.50609566  5596
STARLINK-35507          
1 66327U 25253J   25338.17623663  .00356348  00000+0  56023-2 0  9992
2 66327  43.0006  34.8059 0007508 257.8373 102.1647 15.51574581  5607
