CCSDS_OMM_VERS = 2.0
CREATION_DATE  = 
ORIGINATOR     = 

OBJECT_NAME    = SENTINEL-1D
OBJECT_ID      = 2025-251A
CENTER_NAME    = EARTH
REF_FRAME      = TEME
TIME_SYSTEM    = UTC
MEAN_ELEMENT_THEORY = SGP/SGP4

EPOCH          = 2025-12-03T14:30:47.068416
MEAN_MOTION    = 14.59911030
ECCENTRICITY   = .00026458
INCLINATION    = 98.1924
RA_OF_ASC_NODE = 342.7567
ARG_OF_PERICENTER = 152.8376
MEAN_ANOMALY   = 207.2963

EPHEMERIS_TYPE = 0
CLASSIFICATION_TYPE = U
NORAD_CAT_ID   = 66315
ELEMENT_SET_NO = 999
REV_AT_EPOCH   = 420
BSTAR          = .80054337E-4
MEAN_MOTION_DOT = .337E-5
MEAN_MOTION_DDOT = 0

CCSDS_OMM_VERS = 2.0
CREATION_DATE  = 
ORIGINATOR     = 

OBJECT_NAME    = QPS-SAR-14 (YACHIHOKO-I)
OBJECT_ID      = 2025-252A
CENTER_NAME    = EARTH
REF_FRAME      = TEME
TIME_SYSTEM    = UTC
MEAN_ELEMENT_THEORY = SGP/SGP4

EPOCH          = 2025-12-04T03:11:32.570304
MEAN_MOTION    = 14.97560514
ECCENTRICITY   = .0006829
INCLINATION    = 42.0034
RA_OF_ASC_NODE = 122.5741
ARG_OF_PERICENTER = 91.9223
MEAN_ANOMALY   = 268.2384

EPHEMERIS_TYPE = 0
CLASSIFICATION_TYPE = U
NORAD_CAT_ID   = 66316
ELEMENT_SET_NO = 999
REV_AT_EPOCH   = 424
BSTAR          = .10611E-2
MEAN_MOTION_DOT = .12436E-3
MEAN_MOTION_DDOT = 0

CCSDS_OMM_VERS = 2.0
CREATION_DATE  = 
ORIGINATOR     = 

OBJECT_NAME    = ELECTRON R/B
OBJECT_ID      = 2025-252B
CENTER_NAME    = EARTH
REF_FRAME      = TEME
TIME_SYSTEM    = UTC
MEAN_ELEMENT_THEORY = SGP/SGP4

EPOCH          = 2025-12-03T17:54:17.702208
MEAN_MOTION    = 16.11372677
ECCENTRICITY   = .00810811
INCLINATION    = 41.9860
RA_OF_ASC_NODE = 105.3311
ARG_OF_PERICENTER = 73.5218
MEAN_ANOMALY   = 287.4538

EPHEMERIS_TYPE = 0
CLASSIFICATION_TYPE = U
NORAD_CAT_ID   = 66317
ELEMENT_SET_NO = 999
REV_AT_EPOCH   = 440
BSTAR          = .17947301E-2
MEAN_MOTION_DOT = .3381088E-1
MEAN_MOTION_DDOT = .8186283E-5

CCSDS_OMM_VERS = 2.0
CREATION_DATE  = 
ORIGINATOR     = 

OBJECT_NAME    = STARLINK-35442
OBJECT_ID      = 2025-253A
CENTER_NAME    = EARTH
REF_FRAME      = TEME
TIME_SYSTEM    = UTC
MEAN_ELEMENT_THEORY = SGP/SGP4

EPOCH          = 2025-12-04T00:00:02.000160
MEAN_MOTION    = 15.40760986
ECCENTRICITY   = .0001616
INCLINATION    = 43.0012
RA_OF_ASC_NODE = 36.2403
ARG_OF_PERICENTER = 263.9906
MEAN_ANOMALY   = 23.9749

EPHEMERIS_TYPE = 0
CLASSIFICATION_TYPE = U
NORAD_CAT_ID   = 66319
ELEMENT_SET_NO = 999
REV_AT_EPOCH   = 562
BSTAR          = -.3315E-2
MEAN_MOTION_DOT = -.13661E-2
MEAN_MOTION_DDOT = 0

CCSDS_OMM_VERS = 2.0
CREATION_DATE  = 
ORIGINATOR     = 

OBJECT_NAME    = STARLINK-34616
OBJECT_ID      = 2025-253B
CENTER_NAME    = EARTH
REF_FRAME      = TEME
TIME_SYSTEM    = UTC
MEAN_ELEMENT_THEORY = SGP/SGP4

EPOCH          = 2025-12-03T20:32:36.860352
MEAN_MOTION    = 15.48827560
ECCENTRICITY   = .000321
INCLINATION    = 43.0001
RA_OF_ASC_NODE = 36.7018
ARG_OF_PERICENTER = 337.9730
MEAN_ANOMALY   = 22.0991

EPHEMERIS_TYPE = 0
CLASSIFICATION_TYPE = U
NORAD_CAT_ID   = 66320
ELEMENT_SET_NO = 999
REV_AT_EPOCH   = 563
BSTAR          = -.18286E-2
MEAN_MOTION_DOT = -.99902E-3
MEAN_MOTION_DDOT = 0

CCSDS_OMM_VERS = 2.0
CREATION_DATE  = 
ORIGINATOR     = 

OBJECT_NAME    = STARLINK-34615
OBJECT_ID      = 2025-253C
CENTER_NAME    = EARTH
REF_FRAME      = TEME
TIME_SYSTEM    = UTC
MEAN_ELEMENT_THEORY = SGP/SGP4

EPOCH          = 2025-12-04T04:00:03.000096
MEAN_MOTION    = 15.52959497
ECCENTRICITY   = .0001446
INCLINATION    = 43.0002
RA_OF_ASC_NODE = 34.0776
ARG_OF_PERICENTER = 263.9858
MEAN_ANOMALY   = 1.6810

EPHEMERIS_TYPE = 0
CLASSIFICATION_TYPE = U
NORAD_CAT_ID   = 66321
ELEMENT_SET_NO = 999
REV_AT_EPOCH   = 559
BSTAR          = -.44688E-1
MEAN_MOTION_DOT = -.2530356E-1
MEAN_MOTION_DDOT = 0

CCSDS_OMM_VERS = 2.0
CREATION_DATE  = 
ORIGINATOR     = 

OBJECT_NAME    = STARLINK-35292
OBJECT_ID      = 2025-253D
CENTER_NAME    = EARTH
REF_FRAME      = TEME
TIME_SYSTEM    = UTC
MEAN_ELEMENT_THEORY = SGP/SGP4

EPOCH          = 2025-12-03T22:00:03.000096
MEAN_MOTION    = 15.40671490
ECCENTRICITY   = .00013768
INCLINATION    = 43.0009
RA_OF_ASC_NODE = 36.6281
ARG_OF_PERICENTER = 273.9096
MEAN_ANOMALY   = 308.6259

EPHEMERIS_TYPE = 0
CLASSIFICATION_TYPE = U
NORAD_CAT_ID   = 66322
ELEMENT_SET_NO = 999
REV_AT_EPOCH   = 551
BSTAR          = .1202322E-2
MEAN_MOTION_DOT = .50204E-3
MEAN_MOTION_DDOT = 0

CCSDS_OMM_VERS = 2.0
CREATION_DATE  = 
ORIGINATOR     = 

OBJECT_NAME    = STARLINK-35309
OBJECT_ID      = 2025-253E
CENTER_NAME    = EARTH
REF_FRAME      = TEME
TIME_SYSTEM    = UTC
MEAN_ELEMENT_THEORY = SGP/SGP4

EPOCH          = 2025-12-03T12:44:13.575552
MEAN_MOTION    = 15.50627350
ECCENTRICITY   = .00017369
INCLINATION    = 42.9999
RA_OF_ASC_NODE = 38.5588
ARG_OF_PERICENTER = 269.0685
MEAN_ANOMALY   = 90.9976

EPHEMERIS_TYPE = 0
CLASSIFICATION_TYPE = U
NORAD_CAT_ID   = 66323
ELEMENT_SET_NO = 999
REV_AT_EPOCH   = 550
BSTAR          = .16514731E-2
MEAN_MOTION_DOT = .97932E-3
MEAN_MOTION_DDOT = 0

CCSDS_OMM_VERS = 2.0
CREATION_DATE  = 
ORIGINATOR     = 

OBJECT_NAME    = STARLINK-35506
OBJECT_ID      = 2025-253F
CENTER_NAME    = EARTH
REF_FRAME      = TEME
TIME_SYSTEM    = UTC
MEAN_ELEMENT_THEORY = SGP/SGP4

EPOCH          = 2025-12-03T12:46:12.432576
MEAN_MOTION    = 15.50590090
ECCENTRICITY   = .00008705
INCLINATION    = 43.0006
RA_OF_ASC_NODE = 38.5692
ARG_OF_PERICENTER = 276.2742
MEAN_ANOMALY   = 83.8019

EPHEMERIS_TYPE = 0
CLASSIFICATION_TYPE = U
NORAD_CAT_ID   = 66324
ELEMENT_SET_NO = 999
REV_AT_EPOCH   = 550
BSTAR          = .45167229E-3
MEAN_MOTION_DOT = .26255E-3
MEAN_MOTION_DDOT = 0

CCSDS_OMM_VERS = 2.0
CREATION_DATE  = 
ORIGINATOR     = 

OBJECT_NAME    = STARLINK-35504
OBJECT_ID      = 2025-253G
CENTER_NAME    = EARTH
REF_FRAME      = TEME
TIME_SYSTEM    = UTC
MEAN_ELEMENT_THEORY = SGP/SGP4

EPOCH          = 2025-12-04T04:00:03.000096
MEAN_MOTION    = 15.40668597
ECCENTRICITY   = .0001011
INCLINATION    = 43.0004
RA_OF_ASC_NODE = 34.9773
ARG_OF_PERICENTER = 274.2573
MEAN_ANOMALY   = 343.7049

EPHEMERIS_TYPE = 0
CLASSIFICATION_TYPE = U
NORAD_CAT_ID   = 66325
ELEMENT_SET_NO = 999
REV_AT_EPOCH   = 555
BSTAR          = -.31309E-3
MEAN_MOTION_DOT = -.13345E-3
MEAN_MOTION_DDOT = 0

CCSDS_OMM_VERS = 2.0
CREATION_DATE  = 
ORIGINATOR     = 

OBJECT_NAME    = STARLINK-35479
OBJECT_ID      = 2025-253H
CENTER_NAME    = EARTH
REF_FRAME      = TEME
TIME_SYSTEM    = UTC
MEAN_ELEMENT_THEORY = SGP/SGP4

EPOCH          = 2025-12-04T02:38:33.362304
MEAN_MOTION    = 15.50609566
ECCENTRICITY   = .0003021
INCLINATION    = 42.9999
RA_OF_ASC_NODE = 35.1636
ARG_OF_PERICENTER = 246.0870
MEAN_ANOMALY   = 113.9673

EPHEMERIS_TYPE = 0
CLASSIFICATION_TYPE = U
NORAD_CAT_ID   = 66326
ELEMENT_SET_NO = 999
REV_AT_EPOCH   = 559
BSTAR          = .3071E-2
MEAN_MOTION_DOT = .184335E-2
MEAN_MOTION_DDOT = 0

CCSDS_OMM_VERS = 2.0
CREATION_DATE  = 
ORIGINATOR     = 

OBJECT_NAME    = STARLINK-35507
OBJECT_ID      = 2025-253J
CENTER_NAME    = EARTH
REF_FRAME      = TEME
TIME_SYSTEM    = UTC
MEAN_ELEMENT_THEORY = SGP/SGP4

EPOCH          = 2025-12-04T04:13:46.844832
MEAN_MOTION    = 15.51574581
ECCENTRICITY   = .0007508
INCLINATION    = 43.0006
RA_OF_ASC_NODE = 34.8059
ARG_OF_PERICENTER = 257.8373
MEAN_ANOMALY   = 102.1647

EPHEMERIS_TYPE = 0
CLASSIFICATION_TYPE = U
NORAD_CAT_ID   = 66327
ELEMENT_SET_NO = 999
REV_AT_EPOCH   = 560
BSTAR          = .56023E-2
MEAN_MOTION_DOT = .356348E-2
MEAN_MOTION_DDOT = 0

